STARLINK-35336          
1 66006U 25232B   25317.58335648 -.00325630  00000+0 -84469-2 0  9995
2 66006  53.1581 284.6966 0001396  79.7941  86.0526 15.39748536  4855
STARLINK-35196          
1 66007U 25232C   25317.58335648 -.00087357  00000+0 -21974-2 0  9999
2 66007  53.1596 284.8507 0000894 112.5079 336.0429 15.39642552  4856
STARLINK-35236          
1 66008U 25232D   25317.21839380  .00095605  00000+0  17085-2 0  9993
2 66008  53.1578 286.3000 0001788  39.4714 320.6425 15.49268636  5560
STARLINK-35276          
1 66009U 25232E   25317.31703707  .00083541  00000+0  20755-2 0  9992
2 66009  53.1595 286.2066 0000859  61.5451 298.5640 15.39622969  5578
STARLINK-35297          
1 66010U 25232F   25317.58335648 -.02072579  00000+0 -54906-1 0  9995
2 66010  53.1591 284.5972 0001388  95.3083 120.6592 15.41486747  4853
STARLINK-35256          
1 66011U 25232G   25317.58335648 -.00085566  00000+0 -21517-2 0  9997
2 66011  53.1591 284.7975 0001628  82.2076  32.0980 15.39640849  4852
STARLINK-35293          
1 66012U 25232H   25317.58335648  .00034517  00000+0  86960-3 0  9990
2 66012  53.1587 284.7471 0000779 119.2992  20.7047 15.39598565  4858
STARLINK-35307          
1 66013U 25232J   25317.19184931  .00078488  00000+0  19594-2 0  9998
2 66013  53.1607 286.8483 0001316 104.1093 256.0058 15.39504599  5571
STARLINK-35395          
1 66014U 25232K   25317.31240823  .00112011  00000+0  27725-2 0  9992
2 66014  53.1593 286.1775 0001336 101.8124 258.3030 15.39584424  5596
STARLINK-34622          
1 66015U 25232L   25317.21529983  .00092617  00000+0  16547-2 0  9998
2 66015  53.1588 286.2799 0001378  23.3312 336.7759 15.49289949  5573
STARLINK-35243          
1 66016U 25232M   25317.15113298  .00075124  00000+0  13469-2 0  9994
2 66016  53.1588 286.5905 0000976  97.8417 262.2703 15.49286960  5573
STARLINK-35398          
1 66017U 25232N   25317.19219100  .00066644  00000+0  16615-2 0  9991
2 66017  53.1609 286.8492 0002130  81.5888 278.5358 15.39620749  5570
STARLINK-35376          
1 66018U 25232P   25317.58335648  .00049750  00000+0  12482-2 0  9998
2 66018  53.1583 284.6444 0001632  84.9559 106.6148 15.39555741  4850
STARLINK-35382          
1 66019U 25232Q   25317.58335648 -.02084687  00000+0 -51523-1 0  9999
2 66019  53.1594 284.5534 0001344  94.7848 142.1553 15.43558166  4856
STARLINK-35430          
1 66020U 25232R   25317.31272173  .00067041  00000+0  16744-2 0  9993
2 66020  53.1597 286.1784 0001626  84.8659 275.2532 15.39563974  5572
STARLINK-35432          
1 66021U 25232S   25317.18754774  .00068485  00000+0  17067-2 0  9993
2 66021  53.1606 286.8208 0002065  92.8427 267.2814 15.39619895  5570
STARLINK-35340          
1 66022U 25232T   25317.30808588  .00072156  00000+0  17962-2 0  9995
2 66022  53.1596 286.1482 0000894 115.0218 245.0879 15.39631911  5590
STARLINK-35394          
1 66023U 25232U   25317.58335648  .00036832  00000+0  92703-3 0  9996
2 66023  53.1596 284.7998 0001063 107.9924   4.3935 15.39596940  4859
STARLINK-35410          
1 66024U 25232V   25317.58335648 -.00187153  00000+0 -47663-2 0  9996
2 66024  53.1583 284.6972 0001389  93.6440  70.2212 15.39734738  4851
STARLINK-35280          
1 66025U 25232W   25317.58335648  .00037597  00000+0  94604-3 0  9999
2 66025  53.1590 284.7483 0000874 116.7195  21.4198 15.39595372  4782
STARLINK-34812          
1 66026U 25232X   25317.58335648 -.00423435  00000+0 -11083-1 0  9990
2 66026  53.1581 284.6467 0001426  85.6936 103.9142 15.39868522  4791
STARLINK-35341          
1 66027U 25232Y   25317.34049726  .00076599  00000+0  19054-2 0  9994
2 66027  53.1592 285.6320 0001671 106.2985 253.8204 15.39626188  5604
STARLINK-35339          
1 66028U 25232Z   25317.58335648  .00030969  00000+0  78237-3 0  9992
2 66028  53.1587 284.4373 0001088  86.3198 206.4269 15.39569263  4783
STARLINK-35399          
1 66029U 25232AA  25317.58335648 -.00125101  00000+0 -31642-2 0  9996
2 66029  53.1590 284.3860 0001258  76.1248 242.3324 15.39666570  4780
STARLINK-35431          
1 66030U 25232AB  25317.58335648  .00065903  00000+0  16461-2 0  9991
2 66030  53.1597 284.3339 0001275  72.0928 272.0623 15.39568968  4783
STARLINK-35326          
1 66031U 25232AC  25317.50425096  .00161046  00000+0  28475-2 0  9994
2 66031  53.1596 284.5173 0001766  70.5873 289.5327 15.49277061  5639
STARLINK-35311          
1 66032U 25232AD  25317.50391255  .00125849  00000+0  22332-2 0  9991
2 66032  53.1594 284.5145 0001670  89.7779 270.3421 15.49325981  5636
QIANFAN-91              
1 66033U 25233A   25317.56972628  .00001454  00000+0  63032-3 0  9996
2 66033  88.9968  65.3912 0017360 125.1189 235.1633 14.23692688  3889
QIANFAN-92              
1 66034U 25233B   25317.42833103  .00001358  00000+0  58982-3 0  9997
2 66034  88.9967  65.4070 0016675 127.1145 233.1574 14.23556525  3866
QIANFAN-93              
1 66035U 25233C   25317.49618475  .00001535  00000+0  65138-3 0  9996
2 66035  88.9948  65.3969 0015917 128.1758 232.0871 14.24841785  3876
QIANFAN-94              
1 66036U 25233D   25317.63707553  .00001383  00000+0  59796-3 0  9993
2 66036  88.9962  65.3822 0016089 125.6729 234.5964 14.23791671  3891
QIANFAN-95              
1 66037U 25233E   25317.56492884  .00001612  00000+0  66700-3 0  9992
2 66037  88.9959  65.3893 0016089 127.4424 232.8236 14.26174388  3883
QIANFAN-96              
1 66038U 25233F   25317.63651810  .00001193  00000+0  51864-3 0  9996
2 66038  88.9959  65.3807 0016564 127.8410 232.4284 14.23443906  3898
QIANFAN-97              
1 66039U 25233G   25317.56555148  .00001370  00000+0  58993-3 0  9993
2 66039  88.9960  65.3910 0016600 128.4596 231.8089 14.23993245  3880
QIANFAN-98              
1 66040U 25233H   25317.56413717  .00001576  00000+0  65143-3 0  9993
2 66040  88.9959  65.3893 0015943 127.5502 232.7143 14.26205141  3881
QIANFAN-99              
1 66041U 25233J   25317.56524946  .00001350  00000+0  58389-3 0  9995
2 66041  88.9957  65.3893 0016025 125.9839 234.2842 14.23759644  3889
QIANFAN-100             
1 66042U 25233K   25317.56374404  .00001581  00000+0  65320-3 0  9997
2 66042  88.9959  65.3893 0016543 128.2026 232.0660 14.26236152  3882
QIANFAN-101             
1 66043U 25233L   25317.55877632  .00000808  00000+0  32806-3 0  9992
2 66043  88.9960  65.3885 0016571 126.3760 233.8966 14.26646506  3887
QIANFAN-102             
1 66044U 25233M   25317.56383802  .00001595  00000+0  67041-3 0  9998
2 66044  88.9959  65.3897 0016997 128.2937 231.9787 14.25342837  3887
QIANFAN-103             
1 66045U 25233N   25317.63465482  .00001223  00000+0  52942-3 0  9994
2 66045  88.9950  65.3817 0016198 125.9071 234.3627 14.23689194  3896
QIANFAN-104             
1 66046U 25233P   25317.56307337  .00001572  00000+0  66008-3 0  9996
2 66046  88.9966  65.3904 0016346 129.3226 230.9419 14.25373866  3884
QIANFAN-105             
1 66047U 25233Q   25317.56312469  .00000687  00000+0  29078-3 0  9991
2 66047  88.9956  65.3890 0016408 128.4057 231.8612 14.24307955  3889
QIANFAN-106             
1 66048U 25233R   25317.56300505  .00001451  00000+0  61878-3 0  9994
2 66048  88.9956  65.3885 0016361 128.5197 231.7465 14.24563335  3889
QIANFAN-107             
1 66049U 25233S   25317.56227350  .00001504  00000+0  63446-3 0  9993
2 66049  88.9958  65.3879 0017076 127.4003 232.8747 14.25125428  3886
QIANFAN-108             
1 66050U 25233T   25317.63285368  .00000997  00000+0  42579-3 0  9995
2 66050  88.9963  65.3822 0017128 127.5768 232.6983 14.24225409  3899
CZ-6A R/B               
1 66051U 25233U   25317.60973610  .00000863  00000+0  17885-3 0  9991
2 66051  89.0298  65.2976 0084805  26.7781 333.7769 14.57024947  3977
2025-234A               
1 66053U 25234A   25317.63194120  .00057022  00000+0  23871-2 0  9998
2 66053  97.4604  23.1083 0014611 196.2513 163.8257 15.23249461  3887
2025-234B               
1 66054U 25234B   25317.58276605  .00014336  00000+0  63961-3 0  9998
2 66054  97.5034  23.1576 0014764 187.2272 172.8753 15.21399360  3876
2025-234C               
1 66055U 25234C   25317.58066664  .00014069  00000+0  62528-3 0  9992
2 66055  97.4556  23.0078 0015369 189.3213 170.7740 15.21525245  3877
2025-234D               
1 66056U 25234D   25317.24716039  .00045327  00000+0  19545-2 0  9995
2 66056  97.4535  22.6810 0015095 190.3325 169.7604 15.22302707  3814
2025-234E               
1 66057U 25234E   25317.39008805  .00850618  00000+0  18732-1 0  9990
2 66057  97.4774  23.2089 0009341 230.6779 129.3640 15.41517311  3860
STARLINK-35552          
1 66058U 25235A   25317.58335648 -.02142795  00000+0 -19199-1 0  9993
2 66058  53.1570  65.3859 0001332  76.3112 265.0061 15.70974058  5183
STARLINK-35560          
1 66059U 25235B   25317.62336485  .00107759  00000+0  19219-2 0  9990
2 66059  53.1600  66.3372 0001051  88.7555 271.3575 15.49265585  5123
STARLINK-35558          
1 66060U 25235C   25317.58335648 -.01963133  00000+0 -49432-1 0  9995
2 66060  53.1602  66.5572 0001034  51.3532  70.7762 15.42795174  5183
STARLINK-35566          
1 66061U 25235D   25317.55815745  .00154394  00000+0  27291-2 0  9992
2 66061  53.1600  66.6405 0001167  84.0231 276.0911 15.49313662  5119
STARLINK-35421          
1 66062U 25235E   25317.55782949  .00084494  00000+0  15157-2 0  9993
2 66062  53.1599  66.6379 0001035  76.6037 283.5087 15.49217291  5110
STARLINK-35562          
1 66063U 25235F   25317.62198381  .00367802  00000+0  62970-2 0  9995
2 66063  53.1594  66.3272 0001506 106.6252 253.4922 15.49389369  5122
STARLINK-35542          
1 66064U 25235G   25317.58335648 -.00069801  00000+0 -17499-2 0  9996
2 66064  53.1605  66.6512 0001150  91.4033 343.3238 15.39640428  5189
STARLINK-35375          
1 66065U 25235H   25317.58335648 -.00146894  00000+0 -37269-2 0  9992
2 66065  53.1603  66.6007 0000786  44.1322  56.3618 15.39674672  5188
